0 FENGYUN 1C DEB
1 31726U 99025CDZ 13281.29202939  .00000911  00000-0  48245-3 0  4560
2 31726 099.1824 298.5599 0268984 167.4578 193.3458 13.99222996329500
0 FENGYUN 1C DEB
1 31726U 99025CDZ 13283.29428693  .00000871  00000-0  46195-3 0  4577
2 31726 099.1816 300.5699 0269150 161.9407 199.1464 13.99226161329781
0 FENGYUN 1C DEB
1 31726U 99025CDZ 13285.29654096  .00000833  00000-0  44291-3 0  4581
2 31726 099.1816 302.5807 0269291 156.4521 204.9227 13.99229183330068
0 FENGYUN 1C DEB
1 31726U 99025CDZ 13287.29878717  .00000787  00000-0  41941-3 0  4599
2 31726 099.1818 304.5862 0269205 151.0220 210.6206 13.99232004330343
0 FENGYUN 1C DEB
1 31726U 99025CDZ 13289.87309130  .00000795  00000-0  42272-3 0  4602
2 31726 099.1812 307.1711 0269857 143.9634 218.0131 13.99236518330704
0 FENGYUN 1C DEB
1 31726U 99025CDZ 13293.23396359  .00000879  00000-0  46534-3 0  4615
2 31726 099.1805 310.5409 0269613 134.8066 227.5482 13.99243694331175
0 FENGYUN 1C DEB
1 31726U 99025CDZ 13295.23617094  .00000867  00000-0  45896-3 0  4627
2 31726 099.1816 312.5521 0269541 129.3311 233.2088 13.99247224331456
